ORBCOMM FM06            
1 25118U 97084G   25318.54111516  .00003636  00000+0  10352-2 0  9998
2 25118  45.0147   5.4246 0003439 255.1270 257.6334 14.46711601463297
ORBCOMM FM07            
1 25119U 97084H   25318.45535733  .00003159  00000+0  90428-3 0  9993
2 25119  45.0140   6.5906 0005333 252.2772 107.7498 14.46725541463278
ORBCOMM FM03            
1 25158U 98007B   25318.59322514  .00002408  00000+0  88154-3 0  9997
2 25158 107.9624  84.6365 0044794 342.5828  17.3775 14.34914830445611
ORBCOMM FM17            
1 25413U 98046A   25318.54171198  .00002298  00000+0  84094-3 0  9995
2 25413  44.9936 267.8431 0004018 274.5321  85.5067 14.35454558424779
ORBCOMM FM18            
1 25414U 98046B   25318.68163892  .00002256  00000+0  76907-3 0  9991
2 25414  44.9907 180.4993 0004756 331.0422  29.0162 14.39036717425925
ORBCOMM FM19            
1 25415U 98046C   25318.40323883  .00002809  00000+0  94978-3 0  9992
2 25415  44.9916 184.0524 0003550 327.4534 202.8546 14.38854896425832
